ONEWEB-0319             
1 49105U 21075AG  25070.57026977  .00000105  00000+0  23802-3 0  9994
2 49105  87.9011  98.0423 0001571 105.0026 255.1280 13.17648555173673
ONEWEB-0323             
1 49106U 21075AH  25070.58605234 -.00000225  00000+0 -66112-3 0  9991
2 49106  87.8797  82.7231 0001330 110.9028 249.2243 13.12442821174870
ONEWEB-0329             
1 49107U 21075AJ  25070.80651910  .00000045  00000+0  83616-4 0  9996
2 49107  87.9011  97.9997 0001721  94.5711 265.5617 13.17648301173688
ONEWEB-0330             
1 49108U 21075AK  25070.80820491  .00000114  00000+0  25962-3 0  9995
2 49108  87.9011  98.0014 0001719  88.8098 271.3231 13.17648333173729
ONEWEB-0292             
1 49186U 21083A   25070.46275153  .00000653  00000+0  17555-2 0  9997
2 49186  87.8914  52.2328 0001867  90.1695 269.9648 13.13344029170182
ONEWEB-0303             
1 49187U 21083B   25070.53418511  .00000006  00000+0 -18191-4 0  9995
2 49187  87.9056  67.4442 0001798  94.0708 266.0630 13.18685340169004
ONEWEB-0306             
1 49188U 21083C   25070.52468890 -.00000069  00000+0 -20884-3 0  9991
2 49188  87.9057  67.4309 0001931  83.5106 276.6246 13.18688581169046
ONEWEB-0307             
1 49189U 21083D   25070.45684595  .00000229  00000+0  59344-3 0  9995
2 49189  87.8915  52.2368 0001985  74.8819 285.2530 13.13381741170181
